STARLETTE               
1 07646U 75010A   26064.27930612 -.00000130  00000+0  12571-4 0  9998
2 07646  49.8226 154.7392 0205553  79.7760 282.6243 13.82349056580161
LAGEOS 1                
1 08820U 76039A   26064.11010752 -.00000002  00000+0  00000+0 0  9999
2 08820 109.8182 143.7139 0044659 324.5687  62.7676  6.38664882906493
AJISAI (EGS)            
1 16908U 86061A   26064.30181329 -.00000074  00000+0  16763-3 0  9997
2 16908  50.0080 106.8410 0011254 275.6992 167.9845 12.44515601467457
COSMOS 1989 (ETALON 1)  
1 19751U 89001C   26063.78459801  .00000009  00000+0  00000+0 0  9997
2 19751  64.8844  75.7648 0023408 217.5711 273.1253  2.13156058289145
COSMOS 2024 (ETALON 2)  
1 20026U 89039C   26064.12717028 -.00000050  00000+0  00000+0 0  9999
2 20026  64.9971 314.1227 0020465 213.4031 319.7304  2.13204578286284
LAGEOS 2                
1 22195U 92070B   26063.18295782 -.00000009  00000+0  00000+0 0  9994
2 22195  52.6796 333.0220 0137776 141.4162  15.2959  6.47293323788620
STELLA                  
1 22824U 93061B   26064.31267207 -.00000023  00000+0  91843-5 0  9998
2 22824  98.7849 128.1370 0006501 169.8143 249.7431 14.27467393689954
LARETS                  
1 27944U 03042F   26064.28720032  .00000112  00000+0  31150-4 0  9994
2 27944  98.4007 224.3815 0012342   6.3348 353.8007 14.63847254198162
LARES                   
1 38077U 12006A   26064.28009278 -.00000019  00000+0  12192-3 0  9996
2 38077  69.4889 109.7318 0007517 155.1246 205.0144 12.54932261644032
LARES-2                 
1 53105U 22080A   26051.71998157 -.00000019  00000+0  00000+0 0  9996
2 53105  70.1780 345.2672 0005158   0.9590 359.1035  6.38965205 84226
