[{"OBJECT_NAME":"STARLETTE","OBJECT_ID":"1975-010A","EPOCH":"2026-03-05T06:42:12.048768","MEAN_MOTION":13.82349056,"ECCENTRICITY":0.02055534,"INCLINATION":49.8226,"RA_OF_ASC_NODE":154.7392,"ARG_OF_PERICENTER":79.776,"MEAN_ANOMALY":282.6243,"EPHEMERIS_TYPE":0,"CLASSIFICATION_TYPE":"U","NORAD_CAT_ID":7646,"ELEMENT_SET_NO":999,"REV_AT_EPOCH":58016,"BSTAR":1.2570559e-5,"MEAN_MOTION_DOT":-1.3e-6,"MEAN_MOTION_DDOT":0},{"OBJECT_NAME":"LAGEOS 1","OBJECT_ID":"1976-039A","EPOCH":"2026-03-05T02:38:33.289728","MEAN_MOTION":6.38664882,"ECCENTRICITY":0.00446595,"INCLINATION":109.8182,"RA_OF_ASC_NODE":143.7139,"ARG_OF_PERICENTER":324.5687,"MEAN_ANOMALY":62.7676,"EPHEMERIS_TYPE":0,"CLASSIFICATION_TYPE":"U","NORAD_CAT_ID":8820,"ELEMENT_SET_NO":999,"REV_AT_EPOCH":90649,"BSTAR":0,"MEAN_MOTION_DOT":-2.0e-8,"MEAN_MOTION_DDOT":0},{"OBJECT_NAME":"AJISAI (EGS)","OBJECT_ID":"1986-061A","EPOCH":"2026-03-05T07:14:36.668256","MEAN_MOTION":12.44515601,"ECCENTRICITY":0.0011254,"INCLINATION":50.008,"RA_OF_ASC_NODE":106.841,"ARG_OF_PERICENTER":275.6992,"MEAN_ANOMALY":167.9845,"EPHEMERIS_TYPE":0,"CLASSIFICATION_TYPE":"U","NORAD_CAT_ID":16908,"ELEMENT_SET_NO":999,"REV_AT_EPOCH":46745,"BSTAR":0.00016762894,"MEAN_MOTION_DOT":-7.4e-7,"MEAN_MOTION_DDOT":0},{"OBJECT_NAME":"COSMOS 1989 (ETALON 1)","OBJECT_ID":"1989-001C","EPOCH":"2026-03-04T18:49:49.268064","MEAN_MOTION":2.13156058,"ECCENTRICITY":0.00234081,"INCLINATION":64.8844,"RA_OF_ASC_NODE":75.7648,"ARG_OF_PERICENTER":217.5711,"MEAN_ANOMALY":273.1253,"EPHEMERIS_TYPE":0,"CLASSIFICATION_TYPE":"U","NORAD_CAT_ID":19751,"ELEMENT_SET_NO":999,"REV_AT_EPOCH":28914,"BSTAR":0,"MEAN_MOTION_DOT":9.0e-8,"MEAN_MOTION_DDOT":0},{"OBJECT_NAME":"COSMOS 2024 (ETALON 2)","OBJECT_ID":"1989-039C","EPOCH":"2026-03-05T03:03:07.512192","MEAN_MOTION":2.13204578,"ECCENTRICITY":0.00204658,"INCLINATION":64.9971,"RA_OF_ASC_NODE":314.1227,"ARG_OF_PERICENTER":213.4031,"MEAN_ANOMALY":319.7304,"EPHEMERIS_TYPE":0,"CLASSIFICATION_TYPE":"U","NORAD_CAT_ID":20026,"ELEMENT_SET_NO":999,"REV_AT_EPOCH":28628,"BSTAR":0,"MEAN_MOTION_DOT":-5.0e-7,"MEAN_MOTION_DDOT":0},{"OBJECT_NAME":"LAGEOS 2","OBJECT_ID":"1992-070B","EPOCH":"2026-03-04T04:23:27.555648","MEAN_MOTION":6.47293323,"ECCENTRICITY":0.0137776,"INCLINATION":52.6796,"RA_OF_ASC_NODE":333.022,"ARG_OF_PERICENTER":141.4162,"MEAN_ANOMALY":15.2959,"EPHEMERIS_TYPE":0,"CLASSIFICATION_TYPE":"U","NORAD_CAT_ID":22195,"ELEMENT_SET_NO":999,"REV_AT_EPOCH":78862,"BSTAR":0,"MEAN_MOTION_DOT":-9.0e-8,"MEAN_MOTION_DDOT":0},{"OBJECT_NAME":"STELLA","OBJECT_ID":"1993-061B","EPOCH":"2026-03-05T07:30:14.866848","MEAN_MOTION":14.27467393,"ECCENTRICITY":0.00065012,"INCLINATION":98.7849,"RA_OF_ASC_NODE":128.137,"ARG_OF_PERICENTER":169.8143,"MEAN_ANOMALY":249.7431,"EPHEMERIS_TYPE":0,"CLASSIFICATION_TYPE":"U","NORAD_CAT_ID":22824,"ELEMENT_SET_NO":999,"REV_AT_EPOCH":68995,"BSTAR":9.1843e-6,"MEAN_MOTION_DOT":-2.3e-7,"MEAN_MOTION_DDOT":0},{"OBJECT_NAME":"LARETS","OBJECT_ID":"2003-042F","EPOCH":"2026-03-05T06:53:34.107648","MEAN_MOTION":14.63847254,"ECCENTRICITY":0.00123424,"INCLINATION":98.4007,"RA_OF_ASC_NODE":224.3815,"ARG_OF_PERICENTER":6.3348,"MEAN_ANOMALY":353.8007,"EPHEMERIS_TYPE":0,"CLASSIFICATION_TYPE":"U","NORAD_CAT_ID":27944,"ELEMENT_SET_NO":999,"REV_AT_EPOCH":19816,"BSTAR":3.1149787e-5,"MEAN_MOTION_DOT":1.12e-6,"MEAN_MOTION_DDOT":0},{"OBJECT_NAME":"LARES","OBJECT_ID":"2012-006A","EPOCH":"2026-03-05T06:43:20.016192","MEAN_MOTION":12.54932261,"ECCENTRICITY":0.00075176,"INCLINATION":69.4889,"RA_OF_ASC_NODE":109.7318,"ARG_OF_PERICENTER":155.1246,"MEAN_ANOMALY":205.0144,"EPHEMERIS_TYPE":0,"CLASSIFICATION_TYPE":"U","NORAD_CAT_ID":38077,"ELEMENT_SET_NO":999,"REV_AT_EPOCH":64403,"BSTAR":0.00012192273,"MEAN_MOTION_DOT":-1.9e-7,"MEAN_MOTION_DDOT":0},{"OBJECT_NAME":"LARES-2","OBJECT_ID":"2022-080A","EPOCH":"2026-02-20T17:16:46.407648","MEAN_MOTION":6.38965205,"ECCENTRICITY":0.00051588,"INCLINATION":70.178,"RA_OF_ASC_NODE":345.2672,"ARG_OF_PERICENTER":0.959,"MEAN_ANOMALY":359.1035,"EPHEMERIS_TYPE":0,"CLASSIFICATION_TYPE":"U","NORAD_CAT_ID":53105,"ELEMENT_SET_NO":999,"REV_AT_EPOCH":8422,"BSTAR":0,"MEAN_MOTION_DOT":-1.9e-7,"MEAN_MOTION_DDOT":0}]
